[{"OBJECT_NAME":"STARLINK-4730","OBJECT_ID":"2022-111X","EPOCH":"2025-11-05T20:33:09.072864","MEAN_MOTION":15.08842499,"ECCENTRICITY":0.00013296,"INCLINATION":53.2163,"RA_OF_ASC_NODE":109.8763,"ARG_OF_PERICENTER":89.6417,"MEAN_ANOMALY":270.4727,"EPHEMERIS_TYPE":0,"CLASSIFICATION_TYPE":"U","NORAD_CAT_ID":53794,"ELEMENT_SET_NO":999,"REV_AT_EPOCH":17499,"BSTAR":4.1915652e-5,"MEAN_MOTION_DOT":3.79e-6,"MEAN_MOTION_DDOT":0},{"OBJECT_NAME":"STARLINK-4742","OBJECT_ID":"2022-111Y","EPOCH":"2025-11-05T16:59:46.586112","MEAN_MOTION":15.08835493,"ECCENTRICITY":0.00014049,"INCLINATION":53.2162,"RA_OF_ASC_NODE":110.3746,"ARG_OF_PERICENTER":85.6688,"MEAN_ANOMALY":274.4465,"EPHEMERIS_TYPE":0,"CLASSIFICATION_TYPE":"U","NORAD_CAT_ID":53795,"ELEMENT_SET_NO":999,"REV_AT_EPOCH":17497,"BSTAR":2.6441123e-5,"MEAN_MOTION_DOT":1.33e-6,"MEAN_MOTION_DDOT":0},{"OBJECT_NAME":"STARLINK-4723","OBJECT_ID":"2022-111AA","EPOCH":"2025-11-05T11:57:42.436512","MEAN_MOTION":15.08850254,"ECCENTRICITY":0.00017439,"INCLINATION":53.2173,"RA_OF_ASC_NODE":111.2017,"ARG_OF_PERICENTER":90.3166,"MEAN_ANOMALY":269.8026,"EPHEMERIS_TYPE":0,"CLASSIFICATION_TYPE":"U","NORAD_CAT_ID":53797,"ELEMENT_SET_NO":999,"REV_AT_EPOCH":17493,"BSTAR":5.8928966e-5,"MEAN_MOTION_DOT":6.5e-6,"MEAN_MOTION_DDOT":0},{"OBJECT_NAME":"STARLINK-4712","OBJECT_ID":"2022-111AB","EPOCH":"2025-11-05T19:59:56.719968","MEAN_MOTION":15.08838788,"ECCENTRICITY":0.00012223,"INCLINATION":53.2155,"RA_OF_ASC_NODE":109.734,"ARG_OF_PERICENTER":79.5181,"MEAN_ANOMALY":280.5949,"EPHEMERIS_TYPE":0,"CLASSIFICATION_TYPE":"U","NORAD_CAT_ID":53798,"ELEMENT_SET_NO":999,"REV_AT_EPOCH":17498,"BSTAR":5.6184856e-5,"MEAN_MOTION_DOT":6.06e-6,"MEAN_MOTION_DDOT":0},{"OBJECT_NAME":"STARLINK-4710","OBJECT_ID":"2022-111AC","EPOCH":"2025-11-05T11:28:42.079584","MEAN_MOTION":15.08840863,"ECCENTRICITY":0.00011002,"INCLINATION":53.217,"RA_OF_ASC_NODE":101.7962,"ARG_OF_PERICENTER":84.5974,"MEAN_ANOMALY":275.5143,"EPHEMERIS_TYPE":0,"CLASSIFICATION_TYPE":"U","NORAD_CAT_ID":53799,"ELEMENT_SET_NO":999,"REV_AT_EPOCH":17506,"BSTAR":0.00013845589,"MEAN_MOTION_DOT":1.916e-5,"MEAN_MOTION_DDOT":0},{"OBJECT_NAME":"STARLINK-4720","OBJECT_ID":"2022-111AD","EPOCH":"2025-11-05T20:43:43.209984","MEAN_MOTION":15.08843935,"ECCENTRICITY":0.00013365,"INCLINATION":53.2162,"RA_OF_ASC_NODE":99.9406,"ARG_OF_PERICENTER":89.3727,"MEAN_ANOMALY":270.7418,"EPHEMERIS_TYPE":0,"CLASSIFICATION_TYPE":"U","NORAD_CAT_ID":53800,"ELEMENT_SET_NO":999,"REV_AT_EPOCH":17512,"BSTAR":-2.5445745e-5,"MEAN_MOTION_DOT":-6.93e-6,"MEAN_MOTION_DDOT":0},{"OBJECT_NAME":"STARLINK-4715","OBJECT_ID":"2022-111AE","EPOCH":"2025-11-05T20:17:10.585824","MEAN_MOTION":15.08837402,"ECCENTRICITY":0.00012512,"INCLINATION":53.2159,"RA_OF_ASC_NODE":99.829,"ARG_OF_PERICENTER":88.9458,"MEAN_ANOMALY":271.1678,"EPHEMERIS_TYPE":0,"CLASSIFICATION_TYPE":"U","NORAD_CAT_ID":53801,"ELEMENT_SET_NO":999,"REV_AT_EPOCH":17512,"BSTAR":4.2004541e-5,"MEAN_MOTION_DOT":3.81e-6,"MEAN_MOTION_DDOT":0},{"OBJECT_NAME":"STARLINK-4726","OBJECT_ID":"2022-111AF","EPOCH":"2025-11-05T20:33:06.382368","MEAN_MOTION":15.08831687,"ECCENTRICITY":0.00013942,"INCLINATION":53.2153,"RA_OF_ASC_NODE":99.8959,"ARG_OF_PERICENTER":93.5993,"MEAN_ANOMALY":266.5158,"EPHEMERIS_TYPE":0,"CLASSIFICATION_TYPE":"U","NORAD_CAT_ID":53802,"ELEMENT_SET_NO":999,"REV_AT_EPOCH":17512,"BSTAR":2.850925e-6,"MEAN_MOTION_DOT":-2.43e-6,"MEAN_MOTION_DDOT":0},{"OBJECT_NAME":"STARLINK-4727","OBJECT_ID":"2022-111AG","EPOCH":"2025-11-05T19:18:16.843968","MEAN_MOTION":15.08832907,"ECCENTRICITY":0.00011634,"INCLINATION":53.2169,"RA_OF_ASC_NODE":85.3076,"ARG_OF_PERICENTER":86.4087,"MEAN_ANOMALY":273.7038,"EPHEMERIS_TYPE":0,"CLASSIFICATION_TYPE":"U","NORAD_CAT_ID":53803,"ELEMENT_SET_NO":999,"REV_AT_EPOCH":17532,"BSTAR":-2.0849283e-5,"MEAN_MOTION_DOT":-6.2e-6,"MEAN_MOTION_DDOT":0},{"OBJECT_NAME":"STARLINK-4729","OBJECT_ID":"2022-111AH","EPOCH":"2025-11-05T18:46:29.473248","MEAN_MOTION":15.08833505,"ECCENTRICITY":0.00012818,"INCLINATION":53.216,"RA_OF_ASC_NODE":95.1471,"ARG_OF_PERICENTER":88.6629,"MEAN_ANOMALY":271.451,"EPHEMERIS_TYPE":0,"CLASSIFICATION_TYPE":"U","NORAD_CAT_ID":53804,"ELEMENT_SET_NO":999,"REV_AT_EPOCH":17518,"BSTAR":-1.6749848e-5,"MEAN_MOTION_DOT":-5.54e-6,"MEAN_MOTION_DDOT":0},{"OBJECT_NAME":"STARLINK-4763","OBJECT_ID":"2022-111AJ","EPOCH":"2025-11-05T19:30:17.813088","MEAN_MOTION":15.08822418,"ECCENTRICITY":0.00018465,"INCLINATION":53.2195,"RA_OF_ASC_NODE":85.3549,"ARG_OF_PERICENTER":96.7756,"MEAN_ANOMALY":263.3446,"EPHEMERIS_TYPE":0,"CLASSIFICATION_TYPE":"U","NORAD_CAT_ID":53805,"ELEMENT_SET_NO":999,"REV_AT_EPOCH":17532,"BSTAR":9.0138604e-5,"MEAN_MOTION_DOT":1.146e-5,"MEAN_MOTION_DDOT":0},{"OBJECT_NAME":"STARLINK-4768","OBJECT_ID":"2022-111AK","EPOCH":"2025-11-05T18:51:44.847072","MEAN_MOTION":15.08836728,"ECCENTRICITY":0.00013994,"INCLINATION":53.219,"RA_OF_ASC_NODE":85.1875,"ARG_OF_PERICENTER":87.9166,"MEAN_ANOMALY":272.1986,"EPHEMERIS_TYPE":0,"CLASSIFICATION_TYPE":"U","NORAD_CAT_ID":53806,"ELEMENT_SET_NO":999,"REV_AT_EPOCH":17532,"BSTAR":2.578438e-6,"MEAN_MOTION_DOT":-2.47e-6,"MEAN_MOTION_DDOT":0},{"OBJECT_NAME":"STARLINK-4738","OBJECT_ID":"2022-114B","EPOCH":"2025-11-05T22:56:10.097088","MEAN_MOTION":15.08839762,"ECCENTRICITY":0.00015049,"INCLINATION":53.2145,"RA_OF_ASC_NODE":139.4555,"ARG_OF_PERICENTER":92.5978,"MEAN_ANOMALY":267.5186,"EPHEMERIS_TYPE":0,"CLASSIFICATION_TYPE":"U","NORAD_CAT_ID":53819,"ELEMENT_SET_NO":999,"REV_AT_EPOCH":17415,"BSTAR":5.2065678e-5,"MEAN_MOTION_DOT":5.41e-6,"MEAN_MOTION_DDOT":0},{"OBJECT_NAME":"STARLINK-4758","OBJECT_ID":"2022-114C","EPOCH":"2025-11-05T12:36:13.914720","MEAN_MOTION":15.08845864,"ECCENTRICITY":0.00010813,"INCLINATION":53.2159,"RA_OF_ASC_NODE":141.7378,"ARG_OF_PERICENTER":117.1443,"MEAN_ANOMALY":242.966,"EPHEMERIS_TYPE":0,"CLASSIFICATION_TYPE":"U","NORAD_CAT_ID":53820,"ELEMENT_SET_NO":999,"REV_AT_EPOCH":17408,"BSTAR":1.951212e-5,"MEAN_MOTION_DOT":2.3e-7,"MEAN_MOTION_DDOT":0},{"OBJECT_NAME":"STARLINK-4748","OBJECT_ID":"2022-114F","EPOCH":"2025-11-05T18:18:39.108096","MEAN_MOTION":15.08833568,"ECCENTRICITY":0.00012932,"INCLINATION":53.2179,"RA_OF_ASC_NODE":95.4334,"ARG_OF_PERICENTER":93.3169,"MEAN_ANOMALY":266.7971,"EPHEMERIS_TYPE":0,"CLASSIFICATION_TYPE":"U","NORAD_CAT_ID":53823,"ELEMENT_SET_NO":999,"REV_AT_EPOCH":17475,"BSTAR":2.1956618e-5,"MEAN_MOTION_DOT":6.2e-7,"MEAN_MOTION_DDOT":0},{"OBJECT_NAME":"STARLINK-4757","OBJECT_ID":"2022-114G","EPOCH":"2025-11-05T05:58:39.380160","MEAN_MOTION":15.08835237,"ECCENTRICITY":0.0001561,"INCLINATION":53.2161,"RA_OF_ASC_NODE":142.1635,"ARG_OF_PERICENTER":81.0515,"MEAN_ANOMALY":279.0654,"EPHEMERIS_TYPE":0,"CLASSIFICATION_TYPE":"U","NORAD_CAT_ID":53824,"ELEMENT_SET_NO":999,"REV_AT_EPOCH":17396,"BSTAR":-6.878373e-6,"MEAN_MOTION_DOT":-3.97e-6,"MEAN_MOTION_DDOT":0}]
