STARLINK-4730           
1 53794U 22111X   25309.85635501  .00000379  00000+0  41916-4 0  9990
2 53794  53.2163 109.8763 0001329  89.6417 270.4727 15.08842499174993
STARLINK-4742           
1 53795U 22111Y   25309.70817808  .00000133  00000+0  26441-4 0  9991
2 53795  53.2162 110.3746 0001404  85.6688 274.4465 15.08835493174978
STARLINK-4723           
1 53797U 22111AA  25309.49840783  .00000650  00000+0  58929-4 0  9997
2 53797  53.2173 111.2017 0001743  90.3166 269.8026 15.08850254174932
STARLINK-4712           
1 53798U 22111AB  25309.83329537  .00000606  00000+0  56185-4 0  9998
2 53798  53.2155 109.7340 0001222  79.5181 280.5949 15.08838788174989
STARLINK-4710           
1 53799U 22111AC  25309.47826481  .00001916  00000+0  13846-3 0  9990
2 53799  53.2170 101.7962 0001100  84.5974 275.5143 15.08840863175067
STARLINK-4720           
1 53800U 22111AD  25309.86369456 -.00000693  00000+0 -25446-4 0  9993
2 53800  53.2162  99.9406 0001336  89.3727 270.7418 15.08843935175124
STARLINK-4715           
1 53801U 22111AE  25309.84526141  .00000381  00000+0  42005-4 0  9990
2 53801  53.2159  99.8290 0001251  88.9458 271.1678 15.08837402175128
STARLINK-4726           
1 53802U 22111AF  25309.85632387 -.00000243  00000+0  28509-5 0  9994
2 53802  53.2153  99.8959 0001394  93.5993 266.5158 15.08831687175129
STARLINK-4727           
1 53803U 22111AG  25309.80436162 -.00000620  00000+0 -20849-4 0  9991
2 53803  53.2169  85.3076 0001163  86.4087 273.7038 15.08832907175321
STARLINK-4729           
1 53804U 22111AH  25309.78228557 -.00000554  00000+0 -16750-4 0  9998
2 53804  53.2160  95.1471 0001281  88.6629 271.4510 15.08833505175187
STARLINK-4763           
1 53805U 22111AJ  25309.81270617  .00001146  00000+0  90139-4 0  9996
2 53805  53.2195  85.3549 0001846  96.7756 263.3446 15.08822418175326
STARLINK-4768           
1 53806U 22111AK  25309.78593573 -.00000247  00000+0  25784-5 0  9999
2 53806  53.2190  85.1875 0001399  87.9166 272.1986 15.08836728175328
STARLINK-4738           
1 53819U 22114B   25309.95567242  .00000541  00000+0  52066-4 0  9997
2 53819  53.2145 139.4555 0001504  92.5978 267.5186 15.08839762174152
STARLINK-4758           
1 53820U 22114C   25309.52516105  .00000023  00000+0  19512-4 0  9998
2 53820  53.2159 141.7378 0001081 117.1443 242.9660 15.08845864174085
STARLINK-4748           
1 53823U 22114F   25309.76295264  .00000062  00000+0  21957-4 0  9996
2 53823  53.2179  95.4334 0001293  93.3169 266.7971 15.08833568174753
STARLINK-4757           
1 53824U 22114G   25309.24906690 -.00000397  00000+0 -68784-5 0  9995
2 53824  53.2161 142.1635 0001561  81.0515 279.0654 15.08835237173968
